LANDSAT 9               
1 49260U 21088A   24181.46244868  .00000917  00000+0  21373-3 0  9993
2 49260  98.2313 250.8844 0001381  94.4942 265.6414 14.57079064146478
